[
    {
        "CCSDS_OMM_VERS": "3.0",
        "COMMENT": "GENERATED VIA SPACE-TRACK.ORG API",
        "CREATION_DATE": "2024-10-22T04:17:00",
        "ORIGINATOR": "18 SPCS",
        "OBJECT_NAME": "SL-8 R/B",
        "OBJECT_ID": "1974-105B",
        "CENTER_NAME": "EARTH",
        "REF_FRAME": "TEME",
        "TIME_SYSTEM": "UTC",
        "MEAN_ELEMENT_THEORY": "SGP4",
        "EPOCH": "2024-10-21T21:35:57.001056",
        "MEAN_MOTION": "13.79118221",
        "ECCENTRICITY": "0.00167820",
        "INCLINATION": "82.9442",
        "RA_OF_ASC_NODE": "88.1124",
        "ARG_OF_PERICENTER": "23.8657",
        "MEAN_ANOMALY": "129.6805",
        "EPHEMERIS_TYPE": "0",
        "CLASSIFICATION_TYPE": "U",
        "NORAD_CAT_ID": "7594",
        "ELEMENT_SET_NO": "999",
        "REV_AT_EPOCH": "50561",
        "BSTAR": "0.00005266300000",
        "MEAN_MOTION_DOT": "0.00000069",
        "MEAN_MOTION_DDOT": "0.0000000000000",
        "SEMIMAJOR_AXIS": "7345.153",
        "PERIOD": "104.415",
        "APOAPSIS": "979.345",
        "PERIAPSIS": "954.691",
        "OBJECT_TYPE": "ROCKET BODY",
        "RCS_SIZE": "LARGE",
        "COUNTRY_CODE": "CIS",
        "LAUNCH_DATE": "1974-12-26",
        "SITE": "PKMTR",
        "DECAY_DATE": null,
        "FILE": "4530606",
        "GP_ID": "271208318",
        "TLE_LINE0": "0 SL-8 R/B",
        "TLE_LINE1": "1 07594U 74105B   24295.89996529  .00000069  00000-0  52663-4 0  9992",
        "TLE_LINE2": "2 07594  82.9442  88.1124 0016782  23.8657 129.6805 13.79118221505618"
    },
    {
        "CCSDS_OMM_VERS": "3.0",
        "COMMENT": "GENERATED VIA SPACE-TRACK.ORG API",
        "CREATION_DATE": "2024-10-22T04:17:00",
        "ORIGINATOR": "18 SPCS",
        "OBJECT_NAME": "SL-8 R/B",
        "OBJECT_ID": "1976-070B",
        "CENTER_NAME": "EARTH",
        "REF_FRAME": "TEME",
        "TIME_SYSTEM": "UTC",
        "MEAN_ELEMENT_THEORY": "SGP4",
        "EPOCH": "2024-10-21T22:09:21.303072",
        "MEAN_MOTION": "13.76371878",
        "ECCENTRICITY": "0.00134500",
        "INCLINATION": "82.9837",
        "RA_OF_ASC_NODE": "93.7510",
        "ARG_OF_PERICENTER": "341.1851",
        "MEAN_ANOMALY": "172.4236",
        "EPHEMERIS_TYPE": "0",
        "CLASSIFICATION_TYPE": "U",
        "NORAD_CAT_ID": "9044",
        "ELEMENT_SET_NO": "999",
        "REV_AT_EPOCH": "42266",
        "BSTAR": "0.00022906000000",
        "MEAN_MOTION_DOT": "0.00000239",
        "MEAN_MOTION_DDOT": "0.0000000000000",
        "SEMIMAJOR_AXIS": "7354.920",
        "PERIOD": "104.623",
        "APOAPSIS": "986.678",
        "PERIAPSIS": "966.893",
        "OBJECT_TYPE": "ROCKET BODY",
        "RCS_SIZE": "LARGE",
        "COUNTRY_CODE": "CIS",
        "LAUNCH_DATE": "1976-07-21",
        "SITE": "PKMTR",
        "DECAY_DATE": null,
        "FILE": "4530606",
        "GP_ID": "271207976",
        "TLE_LINE0": "0 SL-8 R/B",
        "TLE_LINE1": "1 09044U 76070B   24295.92316323  .00000239  00000-0  22906-3 0  9994",
        "TLE_LINE2": "2 09044  82.9837  93.7510 0013450 341.1851 172.4236 13.76371878422663"
    },
    {
        "CCSDS_OMM_VERS": "3.0",
        "COMMENT": "GENERATED VIA SPACE-TRACK.ORG API",
        "CREATION_DATE": "2024-10-21T17:49:28",
        "ORIGINATOR": "18 SPCS",
        "OBJECT_NAME": "SL-8 R/B",
        "OBJECT_ID": "1977-062B",
        "CENTER_NAME": "EARTH",
        "REF_FRAME": "TEME",
        "TIME_SYSTEM": "UTC",
        "MEAN_ELEMENT_THEORY": "SGP4",
        "EPOCH": "2024-10-21T08:23:07.080864",
        "MEAN_MOTION": "13.74092777",
        "ECCENTRICITY": "0.00219180",
        "INCLINATION": "82.9399",
        "RA_OF_ASC_NODE": "60.4756",
        "ARG_OF_PERICENTER": "117.3061",
        "MEAN_ANOMALY": "272.2933",
        "EPHEMERIS_TYPE": "0",
        "CLASSIFICATION_TYPE": "U",
        "NORAD_CAT_ID": "10138",
        "ELEMENT_SET_NO": "999",
        "REV_AT_EPOCH": "36763",
        "BSTAR": "0.00020528000000",
        "MEAN_MOTION_DOT": "0.00000209",
        "MEAN_MOTION_DDOT": "0.0000000000000",
        "SEMIMAJOR_AXIS": "7363.051",
        "PERIOD": "104.796",
        "APOAPSIS": "1001.054",
        "PERIAPSIS": "968.778",
        "OBJECT_TYPE": "ROCKET BODY",
        "RCS_SIZE": "LARGE",
        "COUNTRY_CODE": "CIS",
        "LAUNCH_DATE": "1977-07-08",
        "SITE": "PKMTR",
        "DECAY_DATE": null,
        "FILE": "4530563",
        "GP_ID": "271178809",
        "TLE_LINE0": "0 SL-8 R/B",
        "TLE_LINE1": "1 10138U 77062B   24295.34938751  .00000209  00000-0  20528-3 0  9998",
        "TLE_LINE2": "2 10138  82.9399  60.4756 0021918 117.3061 272.2933 13.74092777367633"
    },
    {
        "CCSDS_OMM_VERS": "3.0",
        "COMMENT": "GENERATED VIA SPACE-TRACK.ORG API",
        "CREATION_DATE": "2024-10-21T17:49:28",
        "ORIGINATOR": "18 SPCS",
        "OBJECT_NAME": "SL-8 R/B",
        "OBJECT_ID": "1978-022B",
        "CENTER_NAME": "EARTH",
        "REF_FRAME": "TEME",
        "TIME_SYSTEM": "UTC",
        "MEAN_ELEMENT_THEORY": "SGP4",
        "EPOCH": "2024-10-21T04:24:11.164320",
        "MEAN_MOTION": "13.77610819",
        "ECCENTRICITY": "0.00227410",
        "INCLINATION": "82.9847",
        "RA_OF_ASC_NODE": "308.2294",
        "ARG_OF_PERICENTER": "88.2402",
        "MEAN_ANOMALY": "342.9907",
        "EPHEMERIS_TYPE": "0",
        "CLASSIFICATION_TYPE": "U",
        "NORAD_CAT_ID": "10693",
        "ELEMENT_SET_NO": "999",
        "REV_AT_EPOCH": "34405",
        "BSTAR": "0.00002460100000",
        "MEAN_MOTION_DOT": "0.00000040",
        "MEAN_MOTION_DDOT": "0.0000000000000",
        "SEMIMAJOR_AXIS": "7350.510",
        "PERIOD": "104.529",
        "APOAPSIS": "989.091",
        "PERIAPSIS": "955.659",
        "OBJECT_TYPE": "ROCKET BODY",
        "RCS_SIZE": "LARGE",
        "COUNTRY_CODE": "CIS",
        "LAUNCH_DATE": "1978-02-28",
        "SITE": "PKMTR",
        "DECAY_DATE": null,
        "FILE": "4530563",
        "GP_ID": "271178908",
        "TLE_LINE0": "0 SL-8 R/B",
        "TLE_LINE1": "1 10693U 78022B   24295.18346255  .00000040  00000-0  24601-4 0  9995",
        "TLE_LINE2": "2 10693  82.9847 308.2294 0022741  88.2402 342.9907 13.77610819344050"
    },
    {
        "CCSDS_OMM_VERS": "3.0",
        "COMMENT": "GENERATED VIA SPACE-TRACK.ORG API",
        "CREATION_DATE": "2024-10-21T17:49:28",
        "ORIGINATOR": "18 SPCS",
        "OBJECT_NAME": "SL-8 R/B",
        "OBJECT_ID": "1978-028B",
        "CENTER_NAME": "EARTH",
        "REF_FRAME": "TEME",
        "TIME_SYSTEM": "UTC",
        "MEAN_ELEMENT_THEORY": "SGP4",
        "EPOCH": "2024-10-21T07:36:55.704960",
        "MEAN_MOTION": "13.75509119",
        "ECCENTRICITY": "0.00184980",
        "INCLINATION": "82.9333",
        "RA_OF_ASC_NODE": "59.0074",
        "ARG_OF_PERICENTER": "320.2125",
        "MEAN_ANOMALY": "58.1773",
        "EPHEMERIS_TYPE": "0",
        "CLASSIFICATION_TYPE": "U",
        "NORAD_CAT_ID": "10732",
        "ELEMENT_SET_NO": "999",
        "REV_AT_EPOCH": "33826",
        "BSTAR": "0.00013807000000",
        "MEAN_MOTION_DOT": "0.00000148",
        "MEAN_MOTION_DDOT": "0.0000000000000",
        "SEMIMAJOR_AXIS": "7357.996",
        "PERIOD": "104.689",
        "APOAPSIS": "993.471",
        "PERIAPSIS": "966.250",
        "OBJECT_TYPE": "ROCKET BODY",
        "RCS_SIZE": "LARGE",
        "COUNTRY_CODE": "CIS",
        "LAUNCH_DATE": "1978-03-15",
        "SITE": "PKMTR",
        "DECAY_DATE": null,
        "FILE": "4530563",
        "GP_ID": "271178421",
        "TLE_LINE0": "0 SL-8 R/B",
        "TLE_LINE1": "1 10732U 78028B   24295.31731140  .00000148  00000-0  13807-3 0  9995",
        "TLE_LINE2": "2 10732  82.9333  59.0074 0018498 320.2125  58.1773 13.75509119338267"
    },
    {
        "CCSDS_OMM_VERS": "3.0",
        "COMMENT": "GENERATED VIA SPACE-TRACK.ORG API",
        "CREATION_DATE": "2024-10-22T06:46:17",
        "ORIGINATOR": "18 SPCS",
        "OBJECT_NAME": "SL-8 R/B",
        "OBJECT_ID": "1980-099B",
        "CENTER_NAME": "EARTH",
        "REF_FRAME": "TEME",
        "TIME_SYSTEM": "UTC",
        "MEAN_ELEMENT_THEORY": "SGP4",
        "EPOCH": "2024-10-22T04:19:11.536032",
        "MEAN_MOTION": "13.77242568",
        "ECCENTRICITY": "0.00307250",
        "INCLINATION": "82.9432",
        "RA_OF_ASC_NODE": "48.4855",
        "ARG_OF_PERICENTER": "149.3019",
        "MEAN_ANOMALY": "258.4323",
        "EPHEMERIS_TYPE": "0",
        "CLASSIFICATION_TYPE": "U",
        "NORAD_CAT_ID": "12092",
        "ELEMENT_SET_NO": "999",
        "REV_AT_EPOCH": "20367",
        "BSTAR": "0.00016212000000",
        "MEAN_MOTION_DOT": "0.00000177",
        "MEAN_MOTION_DDOT": "0.0000000000000",
        "SEMIMAJOR_AXIS": "7351.820",
        "PERIOD": "104.557",
        "APOAPSIS": "996.274",
        "PERIAPSIS": "951.097",
        "OBJECT_TYPE": "ROCKET BODY",
        "RCS_SIZE": "LARGE",
        "COUNTRY_CODE": "CIS",
        "LAUNCH_DATE": "1980-12-10",
        "SITE": "PKMTR",
        "DECAY_DATE": null,
        "FILE": "4530698",
        "GP_ID": "271237525",
        "TLE_LINE0": "0 SL-8 R/B",
        "TLE_LINE1": "1 12092U 80099B   24296.17999463  .00000177  00000-0  16212-3 0  9991",
        "TLE_LINE2": "2 12092  82.9432  48.4855 0030725 149.3019 258.4323 13.77242568203672"
    }
]